{
  "norad_id": 41166,
  "name": "VELOX-CI",
  "history": [
    {
      "epoch": "2026-03-28T09:21:20.758176",
      "apogee_km": 429.64531685149814,
      "perigee_km": 423.63139248854804,
      "latitude_deg": 11.122289718455589,
      "longitude_deg": 134.0230646401178,
      "semi_major_axis_km": 6804.775354670022,
      "eccentricity": 0.00044189,
      "inclination_deg": 14.9835,
      "raan_deg": 348.8063,
      "arg_perigee_deg": 118.0691,
      "mean_anomaly_deg": 242.0081,
      "mean_motion_rev_day": 15.46614485
    }
  ]
}