{"fetched_at":"2026-03-29T16:36:15Z","count":15609,"tles":[{"name":"VELOX-CI","line1":"1 41166U 15077A   26087.38982359  .00027191  00000+0  50405-3 0  9994","line2":"2 41166  14.9835 348.8063 0004418 118.0691 242.0081 15.46614485570187","category":"Other"}]}